OBJECT_NAME,OBJECT_ID,EPOCH,MEAN_MOTION,ECCENTRICITY,INCLINATION,RA_OF_ASC_NODE,ARG_OF_PERICENTER,MEAN_ANOMALY,EPHEMERIS_TYPE,CLASSIFICATION_TYPE,NORAD_CAT_ID,ELEMENT_SET_NO,REV_AT_EPOCH,BSTAR,MEAN_MOTION_DOT,MEAN_MOTION_DDOT
SKYSAT-C4,2016-058B,2026-06-17T00:13:01.691040,15.48581946,.0001367,96.9166,189.7887,133.2052,226.9314,0,U,41771,999,54544,.26781E-3,.14202E-3,0
SKYSAT-C5,2016-058C,2026-06-17T02:29:39.410304,15.34468979,.0001082,97.0466,208.7481,316.1442,43.9716,0,U,41772,999,54373,.18073E-3,.5959E-4,0
SKYSAT-C2,2016-058D,2026-06-17T12:27:15.721344,15.42076805,.0004647,97.0162,190.6014,70.1413,290.0335,0,U,41773,999,54510,.22086E-3,.9361E-4,0
SKYSAT-C3,2016-058E,2026-06-17T01:53:38.287104,15.52534621,.0001501,96.8998,198.9295,94.9033,265.2393,0,U,41774,999,54609,.30236E-3,.18467E-3,0
ALSAT-1B,2016-059C,2026-06-17T12:17:19.809312,14.72274102,.0008092,97.7743,177.2615,218.9869,141.0757,0,U,41785,999,52062,.10828E-4,.21E-6,0
PATHFINDER 1,2016-059E,2026-06-17T08:11:07.641888,14.67663315,.002781,97.8166,167.6104,203.0568,156.9391,0,U,41787,999,51973,.86497E-4,.448E-5,0
SCATSAT 1,2016-059H,2026-06-17T03:29:42.883008,14.79525390,.0053384,98.1191,231.9113,247.6282,111.9267,0,U,41790,999,10158,.12249E-3,.88E-5,0
GOKTURK 1A,2016-073A,2026-06-17T12:27:52.234848,14.62774124,.000145,98.1256,63.1892,76.6893,283.4470,0,U,41875,999,50887,.38328E-4,.149E-5,0
RESOURCESAT-2A,2016-074A,2026-06-17T11:50:03.034752,14.21616407,.000337,98.7530,241.9950,83.1509,277.0051,0,U,41877,999,49434,.82999E-4,.138E-5,0
CARTOSAT-2D,2017-008A,2026-06-17T11:42:21.821184,15.19210010,.0003835,97.4109,227.7888,233.2736,126.8147,0,U,41948,999,51762,.181E-3,.3743E-4,0
SENTINEL-2B,2017-013A,2026-06-17T11:41:35.124576,14.30817024,.0001185,98.5696,243.2575,87.8810,272.2508,0,U,42063,999,48468,.45339E-4,.75E-6,0
CARTOSAT-2E,2017-036C,2026-06-17T12:08:03.657696,15.19260526,.0002476,97.4273,228.3034,317.8025,42.3019,0,U,42767,999,49819,.27769E-3,.5787E-4,0
FORMOSAT-5,2017-049A,2026-06-17T11:12:01.399104,14.50898968,.0012676,98.2255,243.7702,83.6049,276.6589,0,U,42920,999,46671,.43478E-4,.128E-5,0
SENTINEL-5P,2017-064A,2026-06-17T09:55:12.482688,14.19518977,.0000966,98.7925,110.5430,85.7323,274.3963,0,U,42969,999,44959,.33695E-4,.27E-6,0
SKYSAT-C11,2017-068A,2026-06-17T09:04:58.004832,15.57900957,.000064,97.4358,317.2172,86.7945,273.3384,0,U,42987,999,48327,.31556E-3,.23474E-3,0
SKYSAT-C10,2017-068B,2026-06-17T08:34:52.980096,15.34640271,.0001109,97.4512,305.2058,96.7257,263.4112,0,U,42988,999,48238,.20813E-3,.6905E-4,0
SKYSAT-C9,2017-068C,2026-06-17T07:17:34.552032,15.41563589,.0009403,97.4432,306.0875,132.5831,227.6210,0,U,42989,999,48277,.25174E-3,.10506E-3,0
SKYSAT-C8,2017-068D,2026-06-17T07:53:15.722016,15.36977849,.0001477,97.4530,304.9769,95.7626,264.3786,0,U,42990,999,48233,.23695E-3,.8487E-4,0
SKYSAT-C7,2017-068E,2026-06-17T07:44:04.757856,15.36928292,.00072,97.4539,305.9599,106.2603,253.9433,0,U,42991,999,48239,.23843E-3,.8534E-4,0
SKYSAT-C6,2017-068F,2026-06-17T08:13:06.098016,15.34212841,.0004444,97.4573,305.9494,137.0324,223.1266,0,U,42992,999,48234,.23211E-3,.7608E-4,0
CARTOSAT-2F,2018-004A,2026-06-17T12:54:24.490944,15.19218911,.0000668,97.4787,228.1694,198.0274,162.0936,0,U,43111,999,46738,.19559E-3,.405E-4,0
GAOFEN-1 02,2018-031A,2026-06-17T12:02:36.051360,14.76457406,.0003828,98.0529,231.0283,33.4477,326.6974,0,U,43259,999,44274,.92406E-4,.591E-5,0
GAOFEN-1 03,2018-031B,2026-06-17T13:08:43.281888,14.76469589,.0003739,98.0517,230.9323,78.4696,281.6933,0,U,43260,999,44274,.89626E-4,.572E-5,0
GAOFEN-1 04,2018-031D,2026-06-16T04:01:54.374880,14.76478078,.00022392,98.0533,229.7469,82.9600,277.1864,0,U,43262,999,44253,.76072167E-4,.478E-5,0
SENTINEL-3B,2018-039A,2026-06-17T02:52:11.548704,14.26734700,.0000727,98.6249,235.6528,88.7815,271.3448,0,U,43437,999,42411,.53558E-4,.86E-6,0
GAOFEN-5 01,2018-043A,2026-06-17T11:20:46.368960,14.60605711,.000304,98.4569,140.0649,83.1178,277.0367,0,U,43461,999,43173,.64332E-4,.264E-5,0
GAOFEN-6,2018-048A,2026-06-17T13:05:30.991776,14.76605677,.0012124,97.9162,231.2909,165.5721,194.5837,0,U,43484,999,43344,.11722E-3,.769E-5,0
GAOFEN-11 01,2018-063A,2026-06-17T13:25:30.605664,15.55306910,.0003117,97.1291,235.4380,356.9357,3.1879,0,U,43585,999,44040,.27444E-3,.18528E-3,0
ICESAT-2,2018-070A,2026-06-17T11:34:43.506336,15.28286885,.0006035,92.0085,291.0586,106.1256,254.0658,0,U,43613,999,43250,.28749E-3,.7923E-4,0
HYSIS,2018-096A,2026-06-16T09:35:06.552096,14.78693317,.0001924,97.9845,234.1538,106.8178,253.3244,0,U,43719,999,40730,.79264296E-4,.529E-5,0
KAZSTSAT,2018-099AB,2026-06-17T00:44:20.052096,14.99865808,.0008501,97.4268,199.9661,70.2179,289.9961,0,U,43783,999,41128,.11661E-3,.139E-4,0
